{"fetched_at":"2026-03-30T06:02:59Z","count":15439,"tles":[{"name":"STARLINK-3565","line1":"1 51886U 22022AL  26087.78076886  .00003437  00000+0  23371-3 0  9994","line2":"2 51886  53.2166 273.4164 0001335 109.3511 250.7626 15.08870920226134","category":"Starlink"}]}