{
  "norad_id": 51886,
  "name": "STARLINK-3565",
  "history": [
    {
      "epoch": "2026-03-28T18:44:18.429504",
      "apogee_km": 540.5725432785366,
      "perigee_km": 538.7252177370056,
      "latitude_deg": -52.997545827002824,
      "longitude_deg": 163.55381055991165,
      "semi_major_axis_km": 6917.78588050777,
      "eccentricity": 0.00013352,
      "inclination_deg": 53.2166,
      "raan_deg": 273.4164,
      "arg_perigee_deg": 109.3511,
      "mean_anomaly_deg": 250.7626,
      "mean_motion_rev_day": 15.0887092
    }
  ]
}